NORAD_CAT_ID,OBJECT_NAME,OBJECT_TYPE,EPOCH,MEAN_MOTION,ECCENTRICITY,INCLINATION,RA_OF_ASC_NODE,ARG_OF_PERICENTER,MEAN_ANOMALY,BSTAR,MEAN_MOTION_DOT,MEAN_MOTION_DDOT,TLE_LINE0,TLE_LINE1,TLE_LINE2,SEMIMAJOR_AXIS,PERIOD,APOGEE,PERIGEE,DECAYED
50163.0,STARLINK-3306,PAYLOAD,2023-12-26 22:21:56,15.08842025,0.0001467,53.2156,247.3195,87.5304,272.5856,-1.0248e-05,-4.51e-06,0.0,0 STARLINK-3306,1 50163U 21125H   23360.93189984 -.00000451  00000-0 -10248-4 0  9992,2 50163  53.2156 247.3195 0001467  87.5304 272.5856 15.08842025115394,6917.874,95.437,540.754,538.724,0.0
50163.0,STARLINK-3306,PAYLOAD,2023-12-27 01:32:42,15.08848201,0.0001564,53.216,246.7242,96.3294,263.7877,9.1711e-05,1.172e-05,0.0,0 STARLINK-3306,1 50163U 21125H   23361.06437646  .00001172  00000-0  91711-4 0  9991,2 50163  53.2160 246.7242 0001564  96.3294 263.7877 15.08848201114935,6917.855,95.437,540.802,538.638,0.0
50163.0,STARLINK-3306,PAYLOAD,2023-12-27 22:12:43,15.08838465,0.0001607,53.2161,242.8634,95.8583,264.2592,6.7009e-05,7.79e-06,0.0,0 STARLINK-3306,1 50163U 21125H   23361.92550291  .00000779  00000-0  67009-4 0  9993,2 50163  53.2161 242.8634 0001607  95.8583 264.2592 15.08838465115540,6917.885,95.438,540.862,538.638,0.0
50163.0,STARLINK-3306,PAYLOAD,2023-12-28 01:23:29,15.08840375,0.0001611,53.2161,242.2654,93.6587,266.459,8.7073e-05,1.098e-05,0.0,0 STARLINK-3306,1 50163U 21125H   23362.05798186  .00001098  00000-0  87073-4 0  9993,2 50163  53.2161 242.2654 0001611  93.6587 266.4590 15.08840375115085,6917.879,95.438,540.859,538.63,0.0
50163.0,STARLINK-3306,PAYLOAD,2023-12-28 20:28:07,15.08841714,0.0001723,53.2167,238.695,91.2886,268.8304,2.5962e-05,1.25e-06,0.0,0 STARLINK-3306,1 50163U 21125H   23362.85286172  .00000125  00000-0  25962-4 0  9997,2 50163  53.2167 238.6950 0001723  91.2886 268.8304 15.08841714115682,6917.875,95.437,540.932,538.548,0.0
50163.0,STARLINK-3306,PAYLOAD,2023-12-29 01:14:16,15.0884591,0.0001504,53.2167,237.8007,87.7407,272.3757,4.7158e-05,4.63e-06,0.0,0 STARLINK-3306,1 50163U 21125H   23363.05158062  .00000463  00000-0  47158-4 0  9992,2 50163  53.2167 237.8007 0001504  87.7407 272.3757 15.08845910115710,6917.862,95.437,540.768,538.687,0.0
50163.0,STARLINK-3306,PAYLOAD,2023-12-29 21:54:17,15.0884009,0.0001523,53.2169,233.9351,88.7963,271.3204,7.0872e-05,8.4e-06,0.0,0 STARLINK-3306,1 50163U 21125H   23363.91270371  .00000840  00000-0  70872-4 0  9993,2 50163  53.2169 233.9351 0001523  88.7963 271.3204 15.08840090115844,6917.88,95.438,540.799,538.692,0.0
50163.0,STARLINK-3306,PAYLOAD,2023-12-30 10:37:22,15.08845157,0.0001114,53.2152,231.5576,109.8581,250.2531,0.00013166,1.808e-05,0.0,0 STARLINK-3306,1 50163U 21125H   23364.44261667  .00001808  00000-0  13166-3 0  9997,2 50163  53.2152 231.5576 0001114 109.8581 250.2531 15.08845157115923,6917.865,95.437,540.5,538.959,0.0
50163.0,STARLINK-3306,PAYLOAD,2023-12-30 20:09:40,15.08860185,0.000127,53.2156,229.7761,98.0749,262.0387,1.886e-05,1.2e-07,0.0,0 STARLINK-3306,1 50163U 21125H   23364.84005072  .00000012  00000-0  18860-4 0  9990,2 50163  53.2156 229.7761 0001270  98.0749 262.0387 15.08860185115502,6917.819,95.436,540.562,538.805,0.0
50163.0,STARLINK-3306,PAYLOAD,2023-12-30 21:45:03,15.08860734,0.00013,53.2157,229.4787,100.8283,259.2856,3.2854e-05,2.35e-06,0.0,0 STARLINK-3306,1 50163U 21125H   23364.90628891  .00000235  00000-0  32854-4 0  9993,2 50163  53.2157 229.4787 0001300 100.8283 259.2856 15.08860734115999,6917.817,95.436,540.581,538.783,0.0
50163.0,STARLINK-3306,PAYLOAD,2023-12-31 00:55:49,15.08868693,0.0001427,53.2157,228.8837,98.4251,261.6903,-7.0829e-05,-1.416e-05,0.0,0 STARLINK-3306,1 50163U 21125H   23365.03876468 -.00001416  00000-0 -70829-4 0  9991,2 50163  53.2157 228.8837 0001427  98.4251 261.6903 15.08868693115537,6917.793,95.436,540.645,538.671,0.0
50163.0,STARLINK-3306,PAYLOAD,2023-12-31 20:00:29,15.08818095,0.000132,53.2146,225.3169,89.3129,270.8014,-0.00024556,-4.191e-05,0.0,0 STARLINK-3306,1 50163U 21125H   23365.83367883 -.00004191  00000-0 -24556-3 0  9993,2 50163  53.2146 225.3169 0001320  89.3129 270.8014 15.08818095115659,6917.947,95.439,540.726,538.899,0.0
50163.0,STARLINK-3306,PAYLOAD,2023-12-31 21:35:53,15.0881637,0.0001332,53.2145,225.0195,91.03,269.0845,-0.00026366,-4.479e-05,0.0,0 STARLINK-3306,1 50163U 21125H   23365.89992020 -.00004479  00000-0 -26366-3 0  9996,2 50163  53.2145 225.0195 0001332  91.0300 269.0845 15.08816370116149,6917.953,95.439,540.739,538.896,0.0
50163.0,STARLINK-3306,PAYLOAD,2024-01-01 19:51:16,15.08830728,0.0001373,53.2146,220.8556,91.4897,268.6252,1.1034e-05,-1.12e-06,0.0,0 STARLINK-3306,1 50163U 21125H   24001.82727879 -.00000112  00000-0  11034-4 0  9991,2 50163  53.2146 220.8556 0001373  91.4897 268.6252 15.08830728115806,6917.909,95.438,540.724,538.824,0.0
50163.0,STARLINK-3306,PAYLOAD,2024-01-01 21:26:39,15.08837021,0.0001409,53.2143,220.5609,83.9149,276.2004,0.00011892,1.605e-05,0.0,0 STARLINK-3306,1 50163U 21125H   24001.89351773  .00001605  00000-0  11892-3 0  9992,2 50163  53.2143 220.5609 0001409  83.9149 276.2004 15.08837021116292,6917.889,95.438,540.729,538.78,0.0
50163.0,STARLINK-3306,PAYLOAD,2024-01-02 00:37:26,15.08842318,0.0001338,53.215,219.9624,100.9505,259.1638,0.00013249,1.821e-05,0.0,0 STARLINK-3306,1 50163U 21125H   24002.02599657  .00001821  00000-0  13249-3 0  9991,2 50163  53.2150 219.9624 0001338 100.9505 259.1638 15.08842318115833,6917.873,95.437,540.664,538.813,0.0
50163.0,STARLINK-3306,PAYLOAD,2024-01-02 14:55:54,15.08845114,0.0001302,53.2145,217.2885,97.2293,262.8847,0.00054683,8.427e-05,0.0,0 STARLINK-3306,1 50163U 21125H   24002.62215988  .00008427  00000-0  54683-3 0  9995,2 50163  53.2145 217.2885 0001302  97.2293 262.8847 15.08845114116404,6917.865,95.437,540.63,538.829,0.0
50163.0,STARLINK-3306,PAYLOAD,2024-01-02 21:17:26,15.08865486,0.0001339,53.2149,216.097,98.5269,261.5875,0.00072798,0.00011325,0.0,0 STARLINK-3306,1 50163U 21125H   24002.88711388  .00011325  00000-0  72798-3 0  9996,2 50163  53.2149 216.0970 0001339  98.5269 261.5875 15.08865486116442,6917.802,95.436,540.594,538.741,0.0
50163.0,STARLINK-3306,PAYLOAD,2024-01-03 19:32:50,15.08850101,0.0001395,53.2146,211.9343,101.3757,258.7392,-1.8367e-05,-5.8e-06,0.0,0 STARLINK-3306,1 50163U 21125H   24003.81446824 -.00000580  00000-0 -18367-4 0  9996,2 50163  53.2146 211.9343 0001395 101.3757 258.7392 15.08850101116107,6917.85,95.437,540.68,538.749,0.0
50163.0,STARLINK-3306,PAYLOAD,2024-01-03 22:43:36,15.08850445,0.0001396,53.2147,211.3396,98.3107,261.8043,4.7508e-05,4.68e-06,0.0,0 STARLINK-3306,1 50163U 21125H   24003.94694862  .00000468  00000-0  47508-4 0  9999,2 50163  53.2147 211.3396 0001396  98.3107 261.8043 15.08850445116609,6917.848,95.437,540.679,538.748,0.0
50163.0,STARLINK-3306,PAYLOAD,2024-01-04 00:18:59,15.08849818,0.000139,53.2146,211.0425,96.8623,263.2528,3.0264e-05,1.94e-06,0.0,0 STARLINK-3306,1 50163U 21125H   24004.01318841  .00000194  00000-0  30264-4 0  9995,2 50163  53.2146 211.0425 0001390  96.8623 263.2528 15.08849818116615,6917.85,95.437,540.677,538.754,0.0
50163.0,STARLINK-3306,PAYLOAD,2024-01-04 20:59:00,15.08847247,0.0001438,53.2151,207.1757,92.1222,267.9935,-2.1095e-05,-6.24e-06,0.0,0 STARLINK-3306,1 50163U 21125H   24004.87430679 -.00000624  00000-0 -21095-4 0  9995,2 50163  53.2151 207.1757 0001438  92.1222 267.9935 15.08847247116260,6917.858,95.437,540.718,538.728,0.0
50163.0,STARLINK-3306,PAYLOAD,2024-01-05 12:52:51,15.08841598,0.0001384,53.2152,204.2029,92.3284,267.7867,5.1633e-05,5.34e-06,0.0,0 STARLINK-3306,1 50163U 21125H   24005.53671174  .00000534  00000-0  51633-4 0  9995,2 50163  53.2152 204.2029 0001384  92.3284 267.7867 15.08841598116367,6917.876,95.437,540.698,538.783,0.0
50163.0,STARLINK-3306,PAYLOAD,2024-01-05 20:49:47,15.08841987,0.0001429,53.2156,202.7158,88.9227,271.1929,4.3249e-05,4e-06,0.0,0 STARLINK-3306,1 50163U 21125H   24005.86791136  .00000400  00000-0  43249-4 0  9998,2 50163  53.2156 202.7158 0001429  88.9227 271.1929 15.08841987116893,6917.874,95.437,540.728,538.751,0.0
50163.0,STARLINK-3306,PAYLOAD,2024-01-06 19:05:11,15.088431,0.000151,53.2158,198.5532,81.8382,278.2781,7.9079e-05,9.71e-06,0.0,0 STARLINK-3306,1 50163U 21125H   24006.79526968  .00000971  00000-0  79079-4 0  9993,2 50163  53.2158 198.5532 0001510  81.8382 278.2781 15.08843100116554,6917.871,95.437,540.781,538.691,0.0
50163.0,STARLINK-3306,PAYLOAD,2024-01-06 22:15:57,15.08843911,0.0001479,53.2157,197.9581,84.5983,275.5178,8.1965e-05,1.017e-05,0.0,0 STARLINK-3306,1 50163U 21125H   24006.92774824  .00001017  00000-0  81965-4 0  9993,2 50163  53.2157 197.9581 0001479  84.5983 275.5178 15.08843911117057,6917.868,95.437,540.757,538.71,0.0
50163.0,STARLINK-3306,PAYLOAD,2024-01-07 22:06:44,15.08845436,0.0001388,53.2156,193.4963,95.8509,264.2642,9.7583e-05,1.266e-05,0.0,0 STARLINK-3306,1 50163U 21125H   24007.92134513  .00001266  00000-0  97583-4 0  9998,2 50163  53.2156 193.4963 0001388  95.8509 264.2642 15.08845436117201,6917.864,95.437,540.689,538.769,0.0
50163.0,STARLINK-3306,PAYLOAD,2024-01-08 12:25:12,15.08840841,0.0001489,53.2162,190.819,101.0173,259.0986,4.7231e-05,4.64e-06,0.0,0 STARLINK-3306,1 50163U 21125H   24008.51750862  .00000464  00000-0  47231-4 0  9999,2 50163  53.2162 190.8190 0001489 101.0173 259.0986 15.08840841116814,6917.878,95.438,540.773,538.713,0.0
50163.0,STARLINK-3306,PAYLOAD,2024-01-08 18:46:45,15.08841805,0.0001451,53.2162,189.6297,105.1827,254.9326,4.4195e-05,4.16e-06,0.0,0 STARLINK-3306,1 50163U 21125H   24008.78246727  .00000416  00000-0  44195-4 0  9991,2 50163  53.2162 189.6297 0001451 105.1827 254.9326 15.08841805117339,6917.875,95.437,540.744,538.736,0.0
50163.0,STARLINK-3306,PAYLOAD,2024-01-09 12:15:59,15.08837901,0.000146,53.2165,186.3587,103.784,256.3315,9.8207e-06,-1.32e-06,0.0,0 STARLINK-3306,1 50163U 21125H   24009.51111089 -.00000132  00000-0  98207-5 0  9995,2 50163  53.2165 186.3587 0001460 103.7840 256.3315 15.08837901117445,6917.887,95.438,540.762,538.742,0.0
